CCSDS_OMM_VERS = 2.0
CREATION_DATE  = 
ORIGINATOR     = 

OBJECT_NAME    = COSMOS 1933
OBJECT_ID      = 1988-020A
CENTER_NAME    = EARTH
REF_FRAME      = TEME
TIME_SYSTEM    = UTC
MEAN_ELEMENT_THEORY = SGP/SGP4

EPOCH          = 2026-02-06T17:44:46.332960
MEAN_MOTION    = 15.17718553
ECCENTRICITY   = .00032939
INCLINATION    = 82.5123
RA_OF_ASC_NODE = 281.5330
ARG_OF_PERICENTER = 328.8673
MEAN_ANOMALY   = 31.2365

EPHEMERIS_TYPE = 0
CLASSIFICATION_TYPE = U
NORAD_CAT_ID   = 18958
ELEMENT_SET_NO = 999
REV_AT_EPOCH   = 4553
BSTAR          = .26987143E-3
MEAN_MOTION_DOT = .5471E-4
MEAN_MOTION_DDOT = 0

CCSDS_OMM_VERS = 2.0
CREATION_DATE  = 
ORIGINATOR     = 

OBJECT_NAME    = SL-3 R/B
OBJECT_ID      = 1988-032B
CENTER_NAME    = EARTH
REF_FRAME      = TEME
TIME_SYSTEM    = UTC
MEAN_ELEMENT_THEORY = SGP/SGP4

EPOCH          = 2026-02-06T22:01:11.872128
MEAN_MOTION    = 15.19507826
ECCENTRICITY   = .00256961
INCLINATION    = 97.5152
RA_OF_ASC_NODE = 21.2983
ARG_OF_PERICENTER = 345.7313
MEAN_ANOMALY   = 14.3193

EPHEMERIS_TYPE = 0
CLASSIFICATION_TYPE = U
NORAD_CAT_ID   = 19046
ELEMENT_SET_NO = 999
REV_AT_EPOCH   = 4743
BSTAR          = .36887821E-3
MEAN_MOTION_DOT = .7832E-4
MEAN_MOTION_DDOT = 0

CCSDS_OMM_VERS = 2.0
CREATION_DATE  = 
ORIGINATOR     = 

OBJECT_NAME    = SL-16 R/B
OBJECT_ID      = 1988-039B
CENTER_NAME    = EARTH
REF_FRAME      = TEME
TIME_SYSTEM    = UTC
MEAN_ELEMENT_THEORY = SGP/SGP4

EPOCH          = 2026-02-06T16:40:34.455936
MEAN_MOTION    = 14.19611671
ECCENTRICITY   = .00208585
INCLINATION    = 71.0150
RA_OF_ASC_NODE = 134.0887
ARG_OF_PERICENTER = 21.7265
MEAN_ANOMALY   = 338.4740

EPHEMERIS_TYPE = 0
CLASSIFICATION_TYPE = U
NORAD_CAT_ID   = 19120
ELEMENT_SET_NO = 999
REV_AT_EPOCH   = 95398
BSTAR          = -.14253618E-4
MEAN_MOTION_DOT = -.78E-6
MEAN_MOTION_DDOT = 0

CCSDS_OMM_VERS = 2.0
CREATION_DATE  = 
ORIGINATOR     = 

OBJECT_NAME    = COSMOS 1953
OBJECT_ID      = 1988-050A
CENTER_NAME    = EARTH
REF_FRAME      = TEME
TIME_SYSTEM    = UTC
MEAN_ELEMENT_THEORY = SGP/SGP4

EPOCH          = 2026-02-06T21:59:35.080800
MEAN_MOTION    = 15.27896139
ECCENTRICITY   = .00105262
INCLINATION    = 82.5092
RA_OF_ASC_NODE = 189.1754
ARG_OF_PERICENTER = 229.4472
MEAN_ANOMALY   = 130.5851

EPHEMERIS_TYPE = 0
CLASSIFICATION_TYPE = U
NORAD_CAT_ID   = 19210
ELEMENT_SET_NO = 999
REV_AT_EPOCH   = 3308
BSTAR          = .4466274E-3
MEAN_MOTION_DOT = .12214E-3
MEAN_MOTION_DDOT = 0

CCSDS_OMM_VERS = 2.0
CREATION_DATE  = 
ORIGINATOR     = 

OBJECT_NAME    = SL-8 R/B
OBJECT_ID      = 1988-053B
CENTER_NAME    = EARTH
REF_FRAME      = TEME
TIME_SYSTEM    = UTC
MEAN_ELEMENT_THEORY = SGP/SGP4

EPOCH          = 2026-02-06T20:58:39.016416
MEAN_MOTION    = 14.38897204
ECCENTRICITY   = .00203216
INCLINATION    = 74.0478
RA_OF_ASC_NODE = 169.2612
ARG_OF_PERICENTER = 354.3388
MEAN_ANOMALY   = 156.2041

EPHEMERIS_TYPE = 0
CLASSIFICATION_TYPE = U
NORAD_CAT_ID   = 19257
ELEMENT_SET_NO = 999
REV_AT_EPOCH   = 97216
BSTAR          = .12648423E-3
MEAN_MOTION_DOT = .364E-5
MEAN_MOTION_DDOT = 0

CCSDS_OMM_VERS = 2.0
CREATION_DATE  = 
ORIGINATOR     = 

OBJECT_NAME    = COSMOS 1975
OBJECT_ID      = 1988-093A
CENTER_NAME    = EARTH
REF_FRAME      = TEME
TIME_SYSTEM    = UTC
MEAN_ELEMENT_THEORY = SGP/SGP4

EPOCH          = 2026-02-06T19:27:32.848704
MEAN_MOTION    = 15.27519266
ECCENTRICITY   = .00103411
INCLINATION    = 82.5222
RA_OF_ASC_NODE = 148.6597
ARG_OF_PERICENTER = 279.9775
MEAN_ANOMALY   = 80.0297

EPHEMERIS_TYPE = 0
CLASSIFICATION_TYPE = U
NORAD_CAT_ID   = 19573
ELEMENT_SET_NO = 999
REV_AT_EPOCH   = 1469
BSTAR          = .34203456E-3
MEAN_MOTION_DOT = .9252E-4
MEAN_MOTION_DDOT = 0

CCSDS_OMM_VERS = 2.0
CREATION_DATE  = 
ORIGINATOR     = 

OBJECT_NAME    = SL-14 R/B
OBJECT_ID      = 1988-093B
CENTER_NAME    = EARTH
REF_FRAME      = TEME
TIME_SYSTEM    = UTC
MEAN_ELEMENT_THEORY = SGP/SGP4

EPOCH          = 2026-02-06T14:58:50.558592
MEAN_MOTION    = 14.85621912
ECCENTRICITY   = .0021768
INCLINATION    = 82.5282
RA_OF_ASC_NODE = 71.2148
ARG_OF_PERICENTER = 137.8042
MEAN_ANOMALY   = 345.3903

EPHEMERIS_TYPE = 0
CLASSIFICATION_TYPE = U
NORAD_CAT_ID   = 19574
ELEMENT_SET_NO = 999
REV_AT_EPOCH   = 99642
BSTAR          = .62597E-4
MEAN_MOTION_DOT = .569E-5
MEAN_MOTION_DDOT = 0

CCSDS_OMM_VERS = 2.0
CREATION_DATE  = 
ORIGINATOR     = 

OBJECT_NAME    = SL-16 R/B
OBJECT_ID      = 1988-102B
CENTER_NAME    = EARTH
REF_FRAME      = TEME
TIME_SYSTEM    = UTC
MEAN_ELEMENT_THEORY = SGP/SGP4

EPOCH          = 2026-02-06T21:30:27.664992
MEAN_MOTION    = 14.16146384
ECCENTRICITY   = .00123356
INCLINATION    = 70.9970
RA_OF_ASC_NODE = 216.2855
ARG_OF_PERICENTER = 52.4484
MEAN_ANOMALY   = 307.7758

EPHEMERIS_TYPE = 0
CLASSIFICATION_TYPE = U
NORAD_CAT_ID   = 19650
ELEMENT_SET_NO = 999
REV_AT_EPOCH   = 92253
BSTAR          = .83808442E-4
MEAN_MOTION_DOT = .118E-5
MEAN_MOTION_DDOT = 0

CCSDS_OMM_VERS = 2.0
CREATION_DATE  = 
ORIGINATOR     = 

OBJECT_NAME    = INTERCOSMOS 24
OBJECT_ID      = 1989-080A
CENTER_NAME    = EARTH
REF_FRAME      = TEME
TIME_SYSTEM    = UTC
MEAN_ELEMENT_THEORY = SGP/SGP4

EPOCH          = 2026-02-06T17:54:42.741792
MEAN_MOTION    = 12.59516015
ECCENTRICITY   = .11881696
INCLINATION    = 82.6069
RA_OF_ASC_NODE = 124.5440
ARG_OF_PERICENTER = 4.6728
MEAN_ANOMALY   = 356.4357

EPHEMERIS_TYPE = 0
CLASSIFICATION_TYPE = U
NORAD_CAT_ID   = 20261
ELEMENT_SET_NO = 999
REV_AT_EPOCH   = 66290
BSTAR          = .20507367E-3
MEAN_MOTION_DOT = .709E-5
MEAN_MOTION_DDOT = 0

CCSDS_OMM_VERS = 2.0
CREATION_DATE  = 
ORIGINATOR     = 

OBJECT_NAME    = SL-14 R/B
OBJECT_ID      = 1989-080C
CENTER_NAME    = EARTH
REF_FRAME      = TEME
TIME_SYSTEM    = UTC
MEAN_ELEMENT_THEORY = SGP/SGP4

EPOCH          = 2026-02-06T21:49:03.131328
MEAN_MOTION    = 12.50456880
ECCENTRICITY   = .12294386
INCLINATION    = 82.5942
RA_OF_ASC_NODE = 192.9462
ARG_OF_PERICENTER = 255.1403
MEAN_ANOMALY   = 91.0617

EPHEMERIS_TYPE = 0
CLASSIFICATION_TYPE = U
NORAD_CAT_ID   = 20262
ELEMENT_SET_NO = 999
REV_AT_EPOCH   = 65630
BSTAR          = .1559951E-3
MEAN_MOTION_DOT = .514E-5
MEAN_MOTION_DDOT = 0

CCSDS_OMM_VERS = 2.0
CREATION_DATE  = 
ORIGINATOR     = 

OBJECT_NAME    = DELTA 1 R/B
OBJECT_ID      = 1989-089B
CENTER_NAME    = EARTH
REF_FRAME      = TEME
TIME_SYSTEM    = UTC
MEAN_ELEMENT_THEORY = SGP/SGP4

EPOCH          = 2026-02-06T13:56:58.824960
MEAN_MOTION    = 14.50636713
ECCENTRICITY   = .0068098
INCLINATION    = 97.0727
RA_OF_ASC_NODE = 249.9630
ARG_OF_PERICENTER = 220.1315
MEAN_ANOMALY   = 139.4843

EPHEMERIS_TYPE = 0
CLASSIFICATION_TYPE = U
NORAD_CAT_ID   = 20323
ELEMENT_SET_NO = 999
REV_AT_EPOCH   = 89122
BSTAR          = .13773E-3
MEAN_MOTION_DOT = .521E-5
MEAN_MOTION_DDOT = 0

CCSDS_OMM_VERS = 2.0
CREATION_DATE  = 
ORIGINATOR     = 

OBJECT_NAME    = ARIANE 40 R/B
OBJECT_ID      = 1990-005H
CENTER_NAME    = EARTH
REF_FRAME      = TEME
TIME_SYSTEM    = UTC
MEAN_ELEMENT_THEORY = SGP/SGP4

EPOCH          = 2026-02-06T18:01:08.641344
MEAN_MOTION    = 14.39849542
ECCENTRICITY   = .00089962
INCLINATION    = 98.3150
RA_OF_ASC_NODE = 99.3235
ARG_OF_PERICENTER = 301.0794
MEAN_ANOMALY   = 58.9512

EPHEMERIS_TYPE = 0
CLASSIFICATION_TYPE = U
NORAD_CAT_ID   = 20443
ELEMENT_SET_NO = 999
REV_AT_EPOCH   = 88835
BSTAR          = .13016359E-3
MEAN_MOTION_DOT = .366E-5
MEAN_MOTION_DDOT = 0

