COSMOS 1933             
1 18958U 88020A   26037.73942515  .00005471  00000+0  26987-3 0  9994
2 18958  82.5123 281.5330 0003293 328.8673  31.2365 15.17718553 45530
SL-3 R/B                
1 19046U 88032B   26037.91749852  .00007832  00000+0  36888-3 0  9999
2 19046  97.5152  21.2983 0025696 345.7313  14.3193 15.19507826 47433
SL-16 R/B               
1 19120U 88039B   26037.69484324 -.00000078  00000+0 -14254-4 0  9995
2 19120  71.0150 134.0887 0020858  21.7265 338.4740 14.19611671953986
COSMOS 1953             
1 19210U 88050A   26037.91637825  .00012214  00000+0  44663-3 0  9998
2 19210  82.5092 189.1754 0010526 229.4472 130.5851 15.27896139 33088
SL-8 R/B                
1 19257U 88053B   26037.87406269  .00000364  00000+0  12648-3 0  9994
2 19257  74.0478 169.2612 0020321 354.3388 156.2041 14.38897204972165
COSMOS 1975             
1 19573U 88093A   26037.81079686  .00009252  00000+0  34203-3 0  9998
2 19573  82.5222 148.6597 0010341 279.9775  80.0297 15.27519266 14693
SL-14 R/B               
1 19574U 88093B   26037.62419628  .00000569  00000+0  62597-4 0  9992
2 19574  82.5282  71.2148 0021768 137.8042 345.3903 14.85621912996423
SL-16 R/B               
1 19650U 88102B   26037.89615353  .00000118  00000+0  83808-4 0  9998
2 19650  70.9970 216.2855 0012335  52.4484 307.7758 14.16146384922531
INTERCOSMOS 24          
1 20261U 89080A   26037.74632803  .00000709  00000+0  20507-3 0  9999
2 20261  82.6069 124.5440 1188169   4.6728 356.4357 12.59516015662906
SL-14 R/B               
1 20262U 89080C   26037.90906402  .00000514  00000+0  15600-3 0  9999
2 20262  82.5942 192.9462 1229438 255.1403  91.0617 12.50456880656309
DELTA 1 R/B             
1 20323U 89089B   26037.58123640  .00000521  00000+0  13773-3 0  9992
2 20323  97.0727 249.9630 0068098 220.1315 139.4843 14.50636713891222
ARIANE 40 R/B           
1 20443U 90005H   26037.75079446  .00000366  00000+0  13016-3 0  9995
2 20443  98.3150  99.3235 0008996 301.0794  58.9512 14.39849542888359
